sat19071
1 19071U 88033B   20046.72200601  .00000012  00000-0  11062-4 0  9997
2 19071  90.3655 308.0455 0187685 323.3704  86.9829 13.27641378540553
